{
  "norad_id": 68629,
  "name": "STP-S29A OBJECT C",
  "history": [
    {
      "epoch": "2026-04-07T22:00:21.398976Z",
      "apogee_km": 507.2625645716653,
      "perigee_km": 482.61571353701675,
      "latitude_deg": -1.4468162503618337e-05,
      "longitude_deg": -78.57131143366138,
      "height_km": 488.2597665326423,
      "semi_major_axis_km": 6873.076139054341,
      "eccentricity": 0.001793,
      "inclination_deg": 60.0169,
      "raan_deg": 87.7048,
      "arg_perigee_deg": 312.2375,
      "mean_anomaly_deg": 47.7183,
      "mean_motion_rev_day": 15.23617771
    }
  ]
}