STP-S29A OBJECT C       
1 68629U 26074C   26097.91691434  .00002055  00000+0  96632-4 0  9992
2 68629  60.0169  87.7048 0017929 312.2375  47.7183 15.23617771    77
